start=new Date('2022-05-22T00:00:00.000Z').valueOf();
sats=[{"PERIOD":"95.644","CLASSIFICATION_TYPE":"U","NORAD_CAT_ID":"46169","TIME_SYSTEM":"UTC","OBJECT_ID":"2020-057BE","ECCENTRICITY":"0.00014100","REF_FRAME":"TEME","SEMIMAJOR_AXIS":"6927.833","GP_ID":"204190694","APOAPSIS":"550.675","MEAN_MOTION":"15.05589712","FILE":"3457577","LAUNCH_DATE":"2020-08-18","RCS_SIZE":"LARGE","OBJECT_NAME":"STARLINK-1628","TLE_LINE1":"1 46169U 20057BE  22141.82198402  .00001074  00000-0  92866-4 0  9991","ARG_OF_PERICENTER":"66.2943","BSTAR":"0.00009286600000","EPHEMERIS_TYPE":"0","OBJECT_TYPE":"PAYLOAD","EPOCH":"2022-05-21T19:43:39.419328","RA_OF_ASC_NODE":"66.9841","TLE_LINE2":"2 46169  53.0016  66.9841 0001410  66.2943 293.8192 15.05589712 96847","REV_AT_EPOCH":"9684","DECAY_DATE":null,"COUNTRY_CODE":"US","INCLINATION":"53.0016","PERIAPSIS":"548.721","MEAN_MOTION_DDOT":"0.0000000000000","ELEMENT_SET_NO":"999","SITE":"AFETR","MEAN_ANOMALY":"293.8192","MEAN_MOTION_DOT":"0.00001074","CENTER_NAME":"EARTH","MEAN_ELEMENT_THEORY":"SGP4"},{"MEAN_ELEMENT_THEORY":"SGP4","CENTER_NAME":"EARTH","MEAN_MOTION_DOT":"0.00001698","MEAN_ANOMALY":"303.3935","SITE":"AFETR","ELEMENT_SET_NO":"999","PERIAPSIS":"546.072","MEAN_MOTION_DDOT":"0.0000000000000","COUNTRY_CODE":"US","INCLINATION":"53.0565","REV_AT_EPOCH":"9843","DECAY_DATE":null,"TLE_LINE2":"2 46171  53.0565  46.5179 0001633  56.7211 303.3935 15.06403427 98434","EPOCH":"2022-05-21T22:15:44.803296","RA_OF_ASC_NODE":"46.5179","OBJECT_TYPE":"PAYLOAD","BSTAR":"0.00013288000000","EPHEMERIS_TYPE":"0","ARG_OF_PERICENTER":"56.7211","TLE_LINE1":"1 46171U 20057BG  22141.92760189  .00001698  00000-0  13288-3 0  9994","RCS_SIZE":"LARGE","OBJECT_NAME":"STARLINK-1633","LAUNCH_DATE":"2020-08-18","APOAPSIS":"548.334","MEAN_MOTION":"15.06403427","FILE":"3457577","GP_ID":"204191431","REF_FRAME":"TEME","SEMIMAJOR_AXIS":"6925.338","ECCENTRICITY":"0.00016330","NORAD_CAT_ID":"46171","TIME_SYSTEM":"UTC","OBJECT_ID":"2020-057BG","CLASSIFICATION_TYPE":"U","PERIOD":"95.592"},{"COUNTRY_CODE":"US","INCLINATION":"53.0540","REV_AT_EPOCH":"9842","DECAY_DATE":null,"PERIAPSIS":"545.993","MEAN_MOTION_DDOT":"0.0000000000000","OBJECT_TYPE":"PAYLOAD","TLE_LINE2":"2 46172  53.0540  46.7608 0001726  45.2973 314.8156 15.06408091 98421","EPOCH":"2022-05-21T21:01:25.736448","RA_OF_ASC_NODE":"46.7608","CENTER_NAME":"EARTH","MEAN_MOTION_DOT":"0.00001047","MEAN_ELEMENT_THEORY":"SGP4","ELEMENT_SET_NO":"999","MEAN_ANOMALY":"314.8156","SITE":"AFETR","REF_FRAME":"TEME","SEMIMAJOR_AXIS":"6925.324","ECCENTRICITY":"0.00017260","GP_ID":"204189693","NORAD_CAT_ID":"46172","TIME_SYSTEM":"UTC","OBJECT_ID":"2020-057BH","CLASSIFICATION_TYPE":"U","PERIOD":"95.592","BSTAR":"0.00008919600000","EPHEMERIS_TYPE":"0","ARG_OF_PERICENTER":"45.2973","LAUNCH_DATE":"2020-08-18","APOAPSIS":"548.384","MEAN_MOTION":"15.06408091","FILE":"3457577","TLE_LINE1":"1 46172U 20057BH  22141.87599232  .00001047  00000-0  89196-4 0  9998","RCS_SIZE":"LARGE","OBJECT_NAME":"STARLINK-1635"},{"CLASSIFICATION_TYPE":"U","PERIOD":"95.592","OBJECT_ID":"2020-057BJ","NORAD_CAT_ID":"46173","TIME_SYSTEM":"UTC","ECCENTRICITY":"0.00020140","SEMIMAJOR_AXIS":"6925.365","REF_FRAME":"TEME","GP_ID":"204153383","MEAN_MOTION":"15.06394741","FILE":"3457102","APOAPSIS":"548.624","LAUNCH_DATE":"2020-08-18","RCS_SIZE":"LARGE","OBJECT_NAME":"STARLINK-1640","TLE_LINE1":"1 46173U 20057BJ  22141.52399183  .00001667  00000-0  13081-3 0  9991","ARG_OF_PERICENTER":"50.4337","EPHEMERIS_TYPE":"0","BSTAR":"0.00013081000000","OBJECT_TYPE":"PAYLOAD","RA_OF_ASC_NODE":"68.3477","EPOCH":"2022-05-21T12:34:32.894112","TLE_LINE2":"2 46173  53.0577  68.3477 0002014  50.4337 309.6830 15.06394741 96839","DECAY_DATE":null,"REV_AT_EPOCH":"9683","INCLINATION":"53.0577","COUNTRY_CODE":"US","MEAN_MOTION_DDOT":"0.0000000000000","PERIAPSIS":"545.835","ELEMENT_SET_NO":"999","SITE":"AFETR","MEAN_ANOMALY":"309.6830","MEAN_MOTION_DOT":"0.00001667","CENTER_NAME":"EARTH","MEAN_ELEMENT_THEORY":"SGP4"},{"SEMIMAJOR_AXIS":"6925.326","REF_FRAME":"TEME","ECCENTRICITY":"0.00018450","GP_ID":"204191181","NORAD_CAT_ID":"46174","OBJECT_ID":"2020-057BK","TIME_SYSTEM":"UTC","CLASSIFICATION_TYPE":"U","PERIOD":"95.592","EPHEMERIS_TYPE":"0","BSTAR":"0.00016529000000","ARG_OF_PERICENTER":"50.7941","LAUNCH_DATE":"2020-08-18","FILE":"3457577","MEAN_MOTION":"15.06407440","APOAPSIS":"548.468","TLE_LINE1":"1 46174U 20057BK  22141.92943184  .00002182  00000-0  16529-3 0  9995","OBJECT_NAME":"STARLINK-1641","RCS_SIZE":"LARGE","INCLINATION":"53.0573","COUNTRY_CODE":"US","DECAY_DATE":null,"REV_AT_EPOCH":"9689","MEAN_MOTION_DDOT":"0.0000000000000","PERIAPSIS":"545.913","OBJECT_TYPE":"PAYLOAD","TLE_LINE2":"2 46174  53.0573  66.5242 0001845  50.7941 309.3211 15.06407440 96898","RA_OF_ASC_NODE":"66.5242","EPOCH":"2022-05-21T22:18:22.910976","CENTER_NAME":"EARTH","MEAN_MOTION_DOT":"0.00002182","MEAN_ELEMENT_THEORY":"SGP4","ELEMENT_SET_NO":"999","MEAN_ANOMALY":"309.3211","SITE":"AFETR"},{"MEAN_MOTION_DOT":"0.00001592","CENTER_NAME":"EARTH","MEAN_ELEMENT_THEORY":"SGP4","ELEMENT_SET_NO":"999","SITE":"AFETR","MEAN_ANOMALY":"316.2721","DECAY_DATE":null,"REV_AT_EPOCH":"9636","INCLINATION":"53.0556","COUNTRY_CODE":"US","MEAN_MOTION_DDOT":"0.0000000000000","PERIAPSIS":"545.821","OBJECT_TYPE":"PAYLOAD","RA_OF_ASC_NODE":"82.0687","EPOCH":"2022-05-21T19:23:54.413088","TLE_LINE2":"2 46325  53.0556  82.0687 0002014  43.8428 316.2721 15.06399276 96367","ARG_OF_PERICENTER":"43.8428","EPHEMERIS_TYPE":"0","BSTAR":"0.00012579000000","FILE":"3457577","MEAN_MOTION":"15.06399276","APOAPSIS":"548.611","LAUNCH_DATE":"2020-09-03","RCS_SIZE":"LARGE","OBJECT_NAME":"STARLINK-1734","TLE_LINE1":"1 46325U 20062A   22141.80826867  .00001592  00000-0  12579-3 0  9999","ECCENTRICITY":"0.00020140","SEMIMAJOR_AXIS":"6925.351","REF_FRAME":"TEME","GP_ID":"204190191","CLASSIFICATION_TYPE":"U","PERIOD":"95.592","OBJECT_ID":"2020-062A","NORAD_CAT_ID":"46325","TIME_SYSTEM":"UTC"},{"GP_ID":"204190441","REF_FRAME":"TEME","SEMIMAJOR_AXIS":"6925.341","ECCENTRICITY":"0.00025110","OBJECT_ID":"2020-062B","NORAD_CAT_ID":"46326","TIME_SYSTEM":"UTC","CLASSIFICATION_TYPE":"U","PERIOD":"95.592","BSTAR":"0.00010845000000","EPHEMERIS_TYPE":"0","ARG_OF_PERICENTER":"50.3687","TLE_LINE1":"1 46326U 20062B   22141.65021901  .00001334  00000-0  10845-3 0  9997","OBJECT_NAME":"STARLINK-1654","RCS_SIZE":"LARGE","LAUNCH_DATE":"2020-09-03","APOAPSIS":"548.945","FILE":"3457577","MEAN_MOTION":"15.06402475","PERIAPSIS":"545.467","MEAN_MOTION_DDOT":"0.0000000000000","COUNTRY_CODE":"US","INCLINATION":"53.0556","REV_AT_EPOCH":"9510","DECAY_DATE":null,"TLE_LINE2":"2 46326  53.0556 127.7736 0002511  50.3687 309.7523 15.06402475 95106","EPOCH":"2022-05-21T15:36:18.922464","RA_OF_ASC_NODE":"127.7736","OBJECT_TYPE":"PAYLOAD","MEAN_ELEMENT_THEORY":"SGP4","CENTER_NAME":"EARTH","MEAN_MOTION_DOT":"0.00001334","MEAN_ANOMALY":"309.7523","SITE":"AFETR","ELEMENT_SET_NO":"999"},{"COUNTRY_CODE":"US","INCLINATION":"53.0523","REV_AT_EPOCH":"9510","DECAY_DATE":null,"PERIAPSIS":"545.949","MEAN_MOTION_DDOT":"0.0000000000000","OBJECT_TYPE":"PAYLOAD","TLE_LINE2":"2 46327  53.0523 127.5735 0001811  60.1157 300.0012 15.06403387 95101","EPOCH":"2022-05-21T16:41:21.912000","RA_OF_ASC_NODE":"127.5735","CENTER_NAME":"EARTH","MEAN_MOTION_DOT":"0.00002815","MEAN_ELEMENT_THEORY":"SGP4","ELEMENT_SET_NO":"999","MEAN_ANOMALY":"300.0012","SITE":"AFETR","REF_FRAME":"TEME","SEMIMAJOR_AXIS":"6925.338","ECCENTRICITY":"0.00018110","GP_ID":"204190706","OBJECT_ID":"2020-062C","NORAD_CAT_ID":"46327","TIME_SYSTEM":"UTC","CLASSIFICATION_TYPE":"U","PERIOD":"95.592","BSTAR":"0.00020777000000","EPHEMERIS_TYPE":"0","ARG_OF_PERICENTER":"60.1157","LAUNCH_DATE":"2020-09-03","APOAPSIS":"548.457","MEAN_MOTION":"15.06403387","FILE":"3457577","TLE_LINE1":"1 46327U 20062C   22141.69539250  .00002815  00000-0  20777-3 0  9993","OBJECT_NAME":"STARLINK-1673","RCS_SIZE":"LARGE"},{"OBJECT_TYPE":"PAYLOAD","TLE_LINE2":"2 46328  53.0555 107.9613 0002570  50.9066 309.2151 15.06403956 95379","RA_OF_ASC_NODE":"107.9613","EPOCH":"2022-05-21T14:36:37.076544","INCLINATION":"53.0555","COUNTRY_CODE":"US","DECAY_DATE":null,"REV_AT_EPOCH":"9537","MEAN_MOTION_DDOT":"0.0000000000000","PERIAPSIS":"545.422","ELEMENT_SET_NO":"999","MEAN_ANOMALY":"309.2151","SITE":"AFETR","CENTER_NAME":"EARTH","MEAN_MOTION_DOT":"0.00001328","MEAN_ELEMENT_THEORY":"SGP4","NORAD_CAT_ID":"46328","OBJECT_ID":"2020-062D","TIME_SYSTEM":"UTC","CLASSIFICATION_TYPE":"U","PERIOD":"95.592","SEMIMAJOR_AXIS":"6925.336","REF_FRAME":"TEME","ECCENTRICITY":"0.00025700","GP_ID":"204191443","LAUNCH_DATE":"2020-09-03","MEAN_MOTION":"15.06403956","FILE":"3457577","APOAPSIS":"548.981","TLE_LINE1":"1 46328U 20062D   22141.60876246  .00001328  00000-0  10804-3 0  9992","RCS_SIZE":"LARGE","OBJECT_NAME":"STARLINK-1686","EPHEMERIS_TYPE":"0","BSTAR":"0.00010804000000","ARG_OF_PERICENTER":"50.9066"},{"CLASSIFICATION_TYPE":"U","PERIOD":"95.592","TIME_SYSTEM":"UTC","NORAD_CAT_ID":"46329","OBJECT_ID":"2020-062E","GP_ID":"204189705","ECCENTRICITY":"0.00023240","REF_FRAME":"TEME","SEMIMAJOR_AXIS":"6925.353","RCS_SIZE":"LARGE","OBJECT_NAME":"STARLINK-1695","TLE_LINE1":"1 46329U 20062E   22141.64194160  .00000460  00000-0  49809-4 0  9999","APOAPSIS":"548.827","FILE":"3457577","MEAN_MOTION":"15.06398603","LAUNCH_DATE":"2020-09-03","ARG_OF_PERICENTER":"47.4810","BSTAR":"0.00004980900000","EPHEMERIS_TYPE":"0","EPOCH":"2022-05-21T15:24:23.754240","RA_OF_ASC_NODE":"107.8054","TLE_LINE2":"2 46329  53.0560 107.8054 0002324  47.4810 312.6375 15.06398603 95377","OBJECT_TYPE":"PAYLOAD","PERIAPSIS":"545.608","MEAN_MOTION_DDOT":"0.0000000000000","REV_AT_EPOCH":"9537","DECAY_DATE":null,"COUNTRY_CODE":"US","INCLINATION":"53.0560","SITE":"AFETR","MEAN_ANOMALY":"312.6375","ELEMENT_SET_NO":"999","MEAN_ELEMENT_THEORY":"SGP4","MEAN_MOTION_DOT":"0.00000460","CENTER_NAME":"EARTH"}];
